NOAA 15                 
1 25338U 98030A   23200.35529846  .00000287  00000+0  13750-3 0  9995
2 25338  98.6040 228.8596 0009674 214.2434 145.8124 14.26354779309843
NOAA 18                 
1 28654U 05018A   23200.35681062  .00000265  00000+0  16590-3 0  9993
2 28654  98.9090 274.5909 0013162 290.1835  69.7921 14.12971674936115
NOAA 19                 
1 33591U 09005A   23200.40539268  .00000262  00000+0  16589-3 0  9990
2 33591  99.0975 246.8440 0014481 148.9439 211.2592 14.12788635744491
METOP-B                 
1 38771U 12049A   23200.47583431  .00000178  00000+0  10111-3 0  9996
2 38771  98.6768 259.3083 0000918  91.7967 331.3720 14.21511904562133
SARAL                   
1 39086U 13009A   23199.74648254  .00000134  00000+0  65727-4 0  9991
2 39086  98.5481  24.5758 0002034 156.6851 203.4425 14.32235066543201
METOP-C                 
1 43689U 18087A   23200.42998426  .00000173  00000+0  99019-4 0  9997
2 43689  98.6814 259.4160 0002266 356.5410   3.5751 14.21508185243707
ANGELS                  
1 44876U 19092D   23199.71303547  .00005648  00000+0  25236-3 0  9997
2 44876  97.4775  24.1792 0012382  61.1173 299.1303 15.21674459198414
GAZELLE                 
1 54023U 22127A   23198.96823005  .00000235  00000+0  84825-4 0  9994
2 54023  98.3237 196.1168 0013850 158.0277 202.1509 14.41862211 40819
EOS-6 (OCEANSAT-3)      
1 54361U 22158A   23200.44221391  .00000468  00000+0  14058-3 0  9998
2 54361  98.3543 296.9861 0001349  85.9360 274.1987 14.46989682 34004
